[
    {
        "Altitude(m)": 624790.8282011538,
        "Argument of Periapsis(deg)": 0.0,
        "Eccentricity": 0.0,
        "Inclination(deg)": 60.0,
        "Latitude(deg)": -59.147216057847146,
        "Longitude(deg)": -128.96550638260302,
        "Mean Anomaly(deg)": 278.1818,
        "RAAN(deg)": 45.0,
        "Satellite Name": "Test1 215",
        "Satellite Number": 215,
        "Semi-Major Axis(m)": 6980739.136638005,
        "Time(s)": 0
    },
    {
        "Altitude(m)": 624737.4837936306,
        "Argument of Periapsis(deg)": 0.00010418945913296404,
        "Eccentricity": 0.0,
        "Inclination(deg)": 60.0,
        "Latitude(deg)": -58.99467250097033,
        "Longitude(deg)": -127.8460003938603,
        "Mean Anomaly(deg)": 278.8019061454618,
        "RAAN(deg)": 44.99957995086026,
        "Satellite Name": "Test1 215",
        "Satellite Number": 215,
        "Semi-Major Axis(m)": 6980739.136638005,
        "Time(s)": 10
    }
]